NORAD_CAT_ID,OBJECT_NAME,OBJECT_TYPE,EPOCH,MEAN_MOTION,ECCENTRICITY,INCLINATION,RA_OF_ASC_NODE,ARG_OF_PERICENTER,MEAN_ANOMALY,BSTAR,MEAN_MOTION_DOT,MEAN_MOTION_DDOT,TLE_LINE0,TLE_LINE1,TLE_LINE2,SEMIMAJOR_AXIS,PERIOD,APOGEE,PERIGEE,DECAYED
55921.0,STARLINK-5861,PAYLOAD,2024-03-13 21:50:33,14.98307714,0.0003136,69.9992,334.3545,269.1335,90.9465,0.00015388,1.742e-05,0.0,0 STARLINK-5861,1 55921U 23037H   24073.91010483  .00001742  00000-0  15388-3 0  9991,2 55921  69.9992 334.3545 0003136 269.1335  90.9465 14.98307714 54777,6950.262,96.108,574.306,569.947,0.0
55921.0,STARLINK-5861,PAYLOAD,2024-03-14 02:38:56,14.98314271,0.0002814,70.0002,333.8496,264.3859,95.6979,0.00030456,3.541e-05,0.0,0 STARLINK-5861,1 55921U 23037H   24074.11037981  .00003541  00000-0  30456-3 0  9998,2 55921  70.0002 333.8496 0002814 264.3859  95.6979 14.98314271 54803,6950.242,96.108,574.062,570.151,0.0
55921.0,STARLINK-5861,PAYLOAD,2024-03-14 20:16:26,14.98316782,0.0002719,70.0001,331.9998,266.9977,93.0871,0.00014575,1.646e-05,0.0,0 STARLINK-5861,1 55921U 23037H   24074.84474933  .00001646  00000-0  14575-3 0  9998,2 55921  70.0001 331.9998 0002719 266.9977  93.0871 14.98316782 55253,6950.234,96.108,573.989,570.209,0.0
55921.0,STARLINK-5861,PAYLOAD,2024-03-14 21:52:34,14.98315741,0.0002782,70.0003,331.8311,267.204,92.88,0.00016484,1.874e-05,0.0,0 STARLINK-5861,1 55921U 23037H   24074.91150996  .00001874  00000-0  16484-3 0  9990,2 55921  70.0003 331.8311 0002782 267.2040  92.8800 14.98315741 54924,6950.237,96.108,574.036,570.168,0.0
55921.0,STARLINK-5861,PAYLOAD,2024-03-15 21:54:35,14.98327538,0.0002695,70.0004,329.3067,270.2583,89.8267,3.427e-05,3.16e-06,0.0,0 STARLINK-5861,1 55921U 23037H   24075.91291055  .00000316  00000-0  34270-4 0  9997,2 55921  70.0004 329.3067 0002695 270.2583  89.8267 14.98327538 55071,6950.201,96.107,573.939,570.192,0.0
55921.0,STARLINK-5861,PAYLOAD,2024-03-16 02:42:59,14.98329998,0.0002676,70.0003,328.8011,266.8919,93.1933,3.7239e-05,3.51e-06,0.0,0 STARLINK-5861,1 55921U 23037H   24076.11318881  .00000351  00000-0  37239-4 0  9994,2 55921  70.0003 328.8011 0002676 266.8919  93.1933 14.98329998 55447,6950.193,96.107,573.918,570.198,0.0
55921.0,STARLINK-5861,PAYLOAD,2024-03-16 21:56:36,14.98329336,0.0002814,70.0,326.7818,266.8004,93.2833,8.017e-06,3e-08,0.0,0 STARLINK-5861,1 55921U 23037H   24076.91431008  .00000003  00000-0  80170-5 0  9996,2 55921  70.0000 326.7818 0002814 266.8004  93.2833 14.98329336 55227,6950.195,96.107,574.016,570.104,0.0
55921.0,STARLINK-5861,PAYLOAD,2024-03-17 02:45:00,14.98331306,0.000276,70.0001,326.2768,266.7559,93.3285,3.4642e-05,3.2e-06,0.0,0 STARLINK-5861,1 55921U 23037H   24077.11458808  .00000320  00000-0  34642-4 0  9990,2 55921  70.0001 326.2768 0002760 266.7559  93.3285 14.98331306 55593,6950.189,96.107,573.972,570.136,0.0
55921.0,STARLINK-5861,PAYLOAD,2024-03-17 21:58:36,14.98334762,0.0002736,70.0001,324.2569,268.1804,91.9042,4.2361e-05,4.13e-06,0.0,0 STARLINK-5861,1 55921U 23037H   24077.91570431  .00000413  00000-0  42361-4 0  9995,2 55921  70.0001 324.2569 0002736 268.1804  91.9042 14.98334762 55372,6950.178,96.107,573.945,570.142,0.0
55921.0,STARLINK-5861,PAYLOAD,2024-03-18 02:47:00,14.98336531,0.000271,70.0002,323.7522,266.6168,93.4681,5.9951e-05,6.23e-06,0.0,0 STARLINK-5861,1 55921U 23037H   24078.11598191  .00000623  00000-0  59951-4 0  9997,2 55921  70.0002 323.7522 0002710 266.6168  93.4681 14.98336531 55747,6950.173,96.107,573.921,570.154,0.0
55921.0,STARLINK-5861,PAYLOAD,2024-03-18 20:24:29,14.98329549,0.0002531,70.0006,321.9015,262.1108,97.9764,1.6201e-05,1e-06,0.0,0 STARLINK-5861,1 55921U 23037H   24078.85034621  .00000100  00000-0  16201-4 0  9992,2 55921  70.0006 321.9015 0002531 262.1108  97.9764 14.98329549 55858,6950.194,96.107,573.818,570.3,0.0
55921.0,STARLINK-5861,PAYLOAD,2024-03-18 22:00:37,14.98329948,0.0002308,70.0013,321.733,262.2685,97.8212,2.5124e-05,2.07e-06,0.0,0 STARLINK-5861,1 55921U 23037H   24078.91710579  .00000207  00000-0  25124-4 0  9994,2 55921  70.0013 321.7330 0002308 262.2685  97.8212 14.98329948 55521,6950.193,96.107,573.662,570.454,0.0
55921.0,STARLINK-5861,PAYLOAD,2024-03-19 02:49:02,14.9832667,0.0002326,70.0012,321.2273,270.8273,89.2619,5.6495e-05,5.81e-06,0.0,0 STARLINK-5861,1 55921U 23037H   24079.11738807  .00000581  00000-0  56495-4 0  9991,2 55921  70.0012 321.2273 0002326 270.8273  89.2619 14.98326670 55557,6950.203,96.107,573.685,570.452,0.0
55921.0,STARLINK-5861,PAYLOAD,2024-03-19 22:02:38,14.9833768,0.0002829,69.9996,319.2069,266.4386,93.645,3.632e-05,3.4e-06,0.0,0 STARLINK-5861,1 55921U 23037H   24079.91849760  .00000340  00000-0  36320-4 0  9998,2 55921  69.9996 319.2069 0002829 266.4386  93.6450 14.98337680 56016,6950.169,96.107,574.0,570.068,0.0
55921.0,STARLINK-5861,PAYLOAD,2024-03-20 01:14:54,14.98339517,0.0002565,70.0004,318.8717,261.6302,98.4566,4.0031e-05,3.85e-06,0.0,0 STARLINK-5861,1 55921U 23037H   24080.05201562  .00000385  00000-0  40031-4 0  9990,2 55921  70.0004 318.8717 0002565 261.6302  98.4566 14.98339517 55691,6950.163,96.106,573.811,570.246,0.0
55921.0,STARLINK-5861,PAYLOAD,2024-03-20 20:28:32,14.98321732,0.0002736,70.0013,316.8543,251.1056,108.9806,-3.7373e-05,-5.39e-06,0.0,0 STARLINK-5861,1 55921U 23037H   24080.85314915 -.00000539  00000-0 -37373-4 0  9993,2 55921  70.0013 316.8543 0002736 251.1056 108.9806 14.98321732 56152,6950.218,96.108,573.985,570.182,0.0
55921.0,STARLINK-5861,PAYLOAD,2024-03-20 22:04:40,14.98322784,0.0002999,69.9997,316.6825,264.6985,95.3832,-8.3485e-05,-1.089e-05,0.0,0 STARLINK-5861,1 55921U 23037H   24080.91991022 -.00001089  00000-0 -83485-4 0  9996,2 55921  69.9997 316.6825 0002999 264.6985  95.3832 14.98322784 55821,6950.215,96.107,574.165,569.996,0.0
55921.0,STARLINK-5861,PAYLOAD,2024-03-21 09:17:36,14.98327497,0.0003105,69.999,315.503,266.8731,93.2072,-3.6468e-05,-5.28e-06,0.0,0 STARLINK-5861,1 55921U 23037H   24081.38722756 -.00000528  00000-0 -36468-4 0  9990,2 55921  69.9990 315.5030 0003105 266.8731  93.2072 14.98327497 55899,6950.201,96.107,574.224,569.908,0.0
55921.0,STARLINK-5861,PAYLOAD,2024-03-21 20:30:32,14.98333344,0.0003133,69.999,314.3253,268.4855,91.5945,-8.9071e-06,-1.99e-06,0.0,0 STARLINK-5861,1 55921U 23037H   24081.85454343 -.00000199  00000-0 -89071-5 0  9999,2 55921  69.9990 314.3253 0003133 268.4855  91.5945 14.98333344 56304,6950.183,96.107,574.225,569.87,0.0
55921.0,STARLINK-5861,PAYLOAD,2024-03-21 22:06:40,14.98336615,0.0003053,69.9989,314.1567,268.1427,91.9382,2.9342e-05,2.57e-06,0.0,0 STARLINK-5861,1 55921U 23037H   24081.92130023  .00000257  00000-0  29342-4 0  9990,2 55921  69.9989 314.1567 0003053 268.1427  91.9382 14.98336615 55976,6950.172,96.107,574.159,569.916,0.0
55921.0,STARLINK-5861,PAYLOAD,2024-03-22 01:18:56,14.98338356,0.0002681,69.9994,313.8205,265.2203,94.8649,0.000119,1.327e-05,0.0,0 STARLINK-5861,1 55921U 23037H   24082.05481672  .00001327  00000-0  11900-3 0  9993,2 55921  69.9994 313.8205 0002681 265.2203  94.8649 14.98338356 56336,6950.167,96.106,573.895,570.169,0.0
55921.0,STARLINK-5861,PAYLOAD,2024-03-22 20:32:33,14.98321769,0.000285,69.9996,311.7989,271.1056,88.9777,0.00015704,1.781e-05,0.0,0 STARLINK-5861,1 55921U 23037H   24082.85594558  .00001781  00000-0  15704-3 0  9999,2 55921  69.9996 311.7989 0002850 271.1056  88.9777 14.98321769 56453,6950.218,96.108,574.064,570.103,0.0
55921.0,STARLINK-5861,PAYLOAD,2024-03-22 22:08:41,14.98321057,0.0003141,69.9995,311.6317,274.7823,85.2978,0.00012509,1.4e-05,0.0,0 STARLINK-5861,1 55921U 23037H   24082.92270716  .00001400  00000-0  12509-3 0  9992,2 55921  69.9995 311.6317 0003141 274.7823  85.2978 14.98321057 56128,6950.221,96.108,574.269,569.902,0.0
55921.0,STARLINK-5861,PAYLOAD,2024-03-23 18:58:27,14.98298411,0.0002952,69.9997,309.4442,260.8086,99.2739,0.00050886,5.979e-05,0.0,0 STARLINK-5861,1 55921U 23037H   24083.79059472  .00005979  00000-0  50886-3 0  9997,2 55921  69.9997 309.4442 0002952 260.8086  99.2739 14.98298411 56598,6950.291,96.109,574.207,570.104,0.0
55921.0,STARLINK-5861,PAYLOAD,2024-03-23 22:10:42,14.98332926,0.0002711,69.9998,309.1081,256.3984,103.6873,-3.9772e-05,-5.68e-06,0.0,0 STARLINK-5861,1 55921U 23037H   24083.92410509 -.00000568  00000-0 -39772-4 0  9997,2 55921  69.9998 309.1081 0002711 256.3984 103.6873 14.98332926 56279,6950.184,96.107,573.933,570.165,0.0
55921.0,STARLINK-5861,PAYLOAD,2024-03-24 01:22:58,14.9833403,0.0002701,69.9999,308.7717,256.0528,104.0331,-2.5882e-05,-4.02e-06,0.0,0 STARLINK-5861,1 55921U 23037H   24084.05762372 -.00000402  00000-0 -25882-4 0  9994,2 55921  69.9999 308.7717 0002701 256.0528 104.0331 14.98334030 56633,6950.18,96.107,573.923,570.168,0.0
55921.0,STARLINK-5861,PAYLOAD,2024-03-24 07:47:30,14.98349242,0.0002678,69.9999,308.0978,260.0435,100.0422,-0.0002534,-3.117e-05,0.0,0 STARLINK-5861,1 55921U 23037H   24084.32465859 -.00003117  00000-0 -25340-3 0  9998,2 55921  69.9999 308.0978 0002678 260.0435 100.0422 14.98349242 56672,6950.133,96.106,573.86,570.137,0.0
55921.0,STARLINK-5861,PAYLOAD,2024-03-24 22:12:42,14.98339748,0.0002833,69.9989,306.5813,262.8548,97.2289,0.00017307,1.973e-05,0.0,0 STARLINK-5861,1 55921U 23037H   24084.92549381  .00001973  00000-0  17307-3 0  9997,2 55921  69.9989 306.5813 0002833 262.8548  97.2289 14.98339748 56421,6950.163,96.106,573.997,570.059,0.0
55921.0,STARLINK-5861,PAYLOAD,2024-03-25 07:49:31,14.98338851,0.0002492,70.0007,305.5657,290.6883,69.4009,4.5554e-05,4.51e-06,0.0,0 STARLINK-5861,1 55921U 23037H   24085.32605610  .00000451  00000-0  45554-4 0  9996,2 55921  70.0007 305.5657 0002492 290.6883  69.4009 14.98338851 56821,6950.166,96.106,573.763,570.299,0.0
55921.0,STARLINK-5861,PAYLOAD,2024-03-25 20:38:36,14.98330929,0.0002854,69.999,304.2253,268.9539,91.1293,9.49e-06,2e-07,0.0,0 STARLINK-5861,1 55921U 23037H   24085.86014070  .00000020  00000-0  94900-5 0  9991,2 55921  69.9990 304.2253 0002854 268.9539  91.1293 14.98330929 56909,6950.19,96.107,574.039,570.071,0.0
